[{"OBJECT_NAME":"STARLINK-5510","OBJECT_ID":"2023-021V","EPOCH":"2026-03-09T17:57:19.096416","MEAN_MOTION":14.98333238,"ECCENTRICITY":0.00032648,"INCLINATION":70.0015,"RA_OF_ASC_NODE":184.1673,"ARG_OF_PERICENTER":270.0124,"MEAN_ANOMALY":90.0661,"EPHEMERIS_TYPE":0,"CLASSIFICATION_TYPE":"U","NORAD_CAT_ID":55647,"ELEMENT_SET_NO":999,"REV_AT_EPOCH":16880,"BSTAR":1.723613e-5,"MEAN_MOTION_DOT":1.13e-6,"MEAN_MOTION_DDOT":0},{"OBJECT_NAME":"CZ-6A DEB","OBJECT_ID":"2024-140GN","EPOCH":"2026-03-09T13:15:37.384128","MEAN_MOTION":14.8336719,"ECCENTRICITY":0.01353257,"INCLINATION":88.6725,"RA_OF_ASC_NODE":255.8629,"ARG_OF_PERICENTER":152.9061,"MEAN_ANOMALY":207.9314,"EPHEMERIS_TYPE":0,"CLASSIFICATION_TYPE":"U","NORAD_CAT_ID":60811,"ELEMENT_SET_NO":999,"REV_AT_EPOCH":8463,"BSTAR":0.00091817467,"MEAN_MOTION_DOT":8.879e-5,"MEAN_MOTION_DDOT":0}]
